RAVAN                   
1 41849U 16067B   18326.80247816  .00001142  00000-0  10188-3 0  9991
2 41849  97.9236  57.9042 0007869   6.2731 353.8588 14.97993931110872
CELTEE 1                
1 41850U 16067C   18326.78896834  .00000298  00000-0  31213-4 0  9994
2 41850  97.9207  57.0468 0008558   4.5115 355.6181 14.96898714110824
OPTICUBE 04             
1 41851U 16067D   18326.83783286 -.00000349  00000-0 -25223-4 0  9990
2 41851  97.9208  56.9636 0008999   5.4401 354.6916 14.96730004110820
AEROCUBE 8D             
1 41852U 16067E   18326.89142277 -.00000047  00000-0  12159-5 0  9995
2 41852  97.9226  56.8485 0009783   6.1346 353.9993 14.96594944110817
AEROCUBE 8C             
1 41853U 16067F   18326.84251900 -.00000024  00000-0  32286-5 0  9993
2 41853  97.9217  56.7509 0010025   5.4488 354.6840 14.96553967110802
PROMETHEUS 2-1          
1 41854U 16067G   18327.23655609 -.00000097  00000-0 -31952-5 0  9992
2 41854  97.9227  57.2037 0010338   3.5951 356.5342 14.96708910110861
PROMETHEUS 2-3          
1 41855U 16067H   18327.17244794  .00000003  00000-0  55973-5 0  9999
2 41855  97.9227  57.1472 0010490   3.8879 356.2421 14.96708241110856
ITF-2                   
1 41932U 98067KU  18327.14688196  .00154840  20692-4  36852-3 0  9995
2 41932  51.6251 232.8625 0005909 135.8716 224.2764 15.96312965105957
INS-1B                  
1 41954U 17008G   18326.77211846  .00001388  00000-0  61208-4 0  9996
2 41954  97.4284  29.2803 0010198 148.6020 211.5828 15.23419890 98144
BGUSAT                  
1 41999U 17008BD  18327.22445596  .00002313  00000-0  94835-4 0  9998
2 41999  97.4339  31.2989 0008951 161.3288 198.8280 15.25254190 97661
DIDO-2                  
1 42000U 17008BE  18326.83045499  .00001006  00000-0  45094-4 0  9997
2 42000  97.4300  29.8382 0008966 164.9042 195.2464 15.23512150 97550
PEASSS                  
1 42015U 17008BV  18326.85291925  .00001251  00000-0  53997-4 0  9995
2 42015  97.4301  30.5169 0006724 167.8928 192.2472 15.24380954 98085
AL-FARABI 1             
1 42016U 17008BW  18327.19153909  .00001558  00000-0  65527-4 0  9995
2 42016  97.4311  31.1796 0006639 166.4564 193.6853 15.24890443 98274
NAYIF-1 (EO-88)         
1 42017U 17008BX  18326.85504095  .00001626  00000-0  68196-4 0  9995
2 42017  97.4309  30.8540 0006582 167.6096 192.5305 15.24917011 98243
HAVELSAT                
1 42700U 98067LH  18327.13097746  .00076488  00000-0  32801-3 0  9991
2 42700  51.6275 255.4819 0005723 129.2909 230.8603 15.84383389 87092
CXBN-2                  
1 42704U 98067LM  18327.20134947  .00077523  00000-0  34144-3 0  9991
2 42704  51.6306 256.7612 0004642 107.6907 252.4603 15.83824706 87006
PHOENIX                 
1 42706U 98067LP  18327.21531838  .00039122  00000-0  23398-3 0  9996
2 42706  51.6294 261.4100 0003201  88.9806 271.1561 15.77442502 86933
X-CUBESAT               
1 42707U 98067LQ  18327.05246676  .00101292  00000-0  37842-3 0  9999
2 42707  51.6280 254.1030 0004832 115.4116 244.7389 15.87133364 87008
QBEE50-LTU-OC           
1 42708U 98067LR  18327.15339411  .00081719  00000-0  35609-3 0  9991
2 42708  51.6285 256.4028 0004121 117.7403 242.4018 15.84033122 86945
ALTAIR PATHFINDER       
1 42711U 98067LS  18327.09097659  .00022158  00000-0  18928-3 0  9990
2 42711  51.6348 276.4426 0004729  72.0918 288.0595 15.69403887 86387
SHARC                   
1 42712U 98067LT  18327.12631952  .00044603  00000-0  31573-3 0  9995
2 42712  51.6351 275.9876 0004356  84.8110 275.3386 15.73505086 86630
ZA-AEROSAT              
1 42713U 98067LU  18327.20062153  .00039229  00000-0  25130-3 0  9996
2 42713  51.6344 265.8250 0003892  85.4829 274.6615 15.75877887 86534
CSUNSAT 1               
1 42715U 98067LW  18327.05460043  .00044700  00000-0  26653-3 0  9992
2 42715  51.6348 264.8614 0005163  83.5901 276.5687 15.77439430 86536
SPACECUBE               
1 42717U 98067LY  18327.06810234  .00073760  00000-0  32548-3 0  9994
2 42717  51.6242 257.2476 0005097 124.6617 235.4867 15.83800925 86004
HOOPOE                  
1 42718U 98067LZ  18327.18456153  .00231356  32572-4  52626-3 0  9993
2 42718  51.6232 247.3964 0006442 139.9847 220.1637 15.96997202 86145
NJUST-1                 
1 42722U 98067MB  18327.08196348  .00032988  00000-0  22989-3 0  9990
2 42722  51.6358 269.4353 0006535 106.3674 320.2989 15.74002175 85542
UNSW-ECO                
1 42723U 98067MC  18327.18141543  .00556842  16632-3  64214-3 0  9997
2 42723  51.6345 244.4898 0007088 154.4536 205.6829 16.08283470 85862
LILACSAT-1              
1 42725U 98067ME  18327.11959400  .00060986  00000-0  31794-3 0  9996
2 42725  51.6372 262.1019 0005934 104.4251 335.7731 15.80284861 85550
NSIGHT-1                
1 42726U 98067MF  18327.20154419  .00009648  00000-0  10245-3 0  9990
2 42726  51.6386 284.0614 0005980 104.3557 255.8102 15.64803550 85276
SNUSAT-1                
1 42727U 98067MG  18327.18741831  .00056156  00000-0  29640-3 0  9993
2 42727  51.6317 261.8880 0006811  96.7822 263.3955 15.80039770 85523
I-INSPIRE II            
1 42731U 98067ML  18327.18479630  .02692799  12001-4  79993-3 0  9998
2 42731  51.6233 241.2980 0006072 195.9991 164.0839 16.26314391 85687
POLYITAN-2-SAU          
1 42732U 98067MM  18327.15152107  .00095996  00000-0  36628-3 0  9997
2 42732  51.6296 254.8380 0006373 101.3042 258.8678 15.86710625 85502
SNUSAT-1B               
1 42733U 98067MN  18327.04502433  .00066084  00000-0  31823-3 0  9995
2 42733  51.6286 260.1873 0006575  93.8962 266.2793 15.81969846 85427
BEEAGLESAT              
1 42736U 98067MR  18327.07441365  .00045213  00000-0  26012-3 0  9992
2 42736  51.6317 264.1873 0006752 109.5292 250.6438 15.78224303 85439
UCLSAT                  
1 42765U 17036A   18326.84809620  .00001342  00000-0  61330-4 0  9995
2 42765  97.3819  24.0002 0010322 235.4969 124.5294 15.22237078 78848
LITUANICASAT-2          
1 42768U 17036D   18326.74627746  .00002082  00000-0  94063-4 0  9995
2 42768  97.3844  23.4544 0014384 225.9657 134.0395 15.21988422 78677
AALTO-1                 
1 42775U 17036L   18326.85917109  .00000750  00000-0  36888-4 0  9991
2 42775  97.3808  23.2054 0012991 224.1956 135.8243 15.21002414 78617
URSA MAIOR              
1 42776U 17036M   18327.16520372  .00000899  00000-0  43451-4 0  9997
2 42776  97.3815  23.5926 0012839 223.0064 137.0169 15.21109401 78666
COMPASS 2               
1 42777U 17036N   18326.78861032  .00001683  00000-0  76128-4 0  9995
2 42777  97.3844  23.9018 0011622 226.6104 133.4166 15.22236209 78630
DIAMOND RED             
1 42783U 17036U   18327.15386674  .00001036  00000-0  48653-4 0  9992
2 42783  97.3818  24.0575 0010974 234.7514 125.2696 15.21782776 78688
PEGASUS                 
1 42784U 17036V   18326.84051351  .00001204  00000-0  55681-4 0  9995
2 42784  97.3822  23.8772 0010868 235.8714 124.1492 15.22024679 78646
DIAMOND GREEN           
1 42785U 17036W   18327.15264360  .00001048  00000-0  49211-4 0  9995
2 42785  97.3820  24.0742 0010860 235.4363 124.5849 15.21782016 78671
DIAMOND BLUE            
1 42786U 17036X   18327.15170899  .00001036  00000-0  48655-4 0  9997
2 42786  97.3820  24.0728 0010700 235.6138 124.4087 15.21784257 78673
NUDTSAT                 
1 42787U 17036Y   18326.88790224  .00001678  00000-0  74804-4 0  9994
2 42787  97.3852  24.3021 0010066 244.7405 115.2787 15.22764108 78513
SUCHAI                  
1 42788U 17036Z   18327.09534172  .00001375  00000-0  62538-4 0  9992
2 42788  97.3823  24.3007 0010495 234.2072 125.8190 15.22356731 78767
SKCUBE                  
1 42789U 17036AA  18326.83712876  .00001317  00000-0  60181-4 0  9991
2 42789  97.3821  24.0247 0010330 235.1816 124.8449 15.22290941 78646
VZLUSAT-1               
1 42790U 17036AB  18326.94128858  .00001730  00000-0  77016-4 0  9990
2 42790  97.3829  24.3576 0009975 234.3174 125.7135 15.22775069 78679
ROBUSTA-1B              
1 42792U 17036AD  18326.92145318  .00001314  00000-0  59744-4 0  9996
2 42792  97.3821  24.2042 0009895 235.6596 124.3705 15.22449513 78673
CICERO 6                
1 42793U 17036AE  18326.93747865  .00000967  00000-0  45111-4 0  9999
2 42793  97.3808  24.1471 0009048 236.9534 123.0834 15.22195565 78742
D-SAT                   
1 42794U 17036AF  18326.83639836  .00000355  00000-0  36041-4 0  9990
2 42794  97.5711  15.3256 0128266 113.9375 247.5339 14.90972119 77363
TOKI                    
1 42820U 98067MU  18326.93275578  .00043125  00000-0  26331-3 0  9995
2 42820  51.6339 268.5200 0004243  83.3452 276.8031 15.76924911 78845
MAZAALAI (NUMSAT-1)     
1 42822U 98067MW  18326.94311034  .00041903  00000-0  26280-3 0  9991
2 42822  51.6350 269.3542 0004514  83.1860 276.9654 15.76327658 78814
BRAC ONNESHA            
1 42823U 98067MX  18326.73183504  .00044325  00000-0  27455-3 0  9994
2 42823  51.6310 270.2154 0006035  81.6625 278.5059 15.76575073 78760
NIGERIAEDUSAT-1         
1 42824U 98067MY  18326.91350135  .00042028  00000-0  26566-3 0  9991
2 42824  51.6356 269.9596 0006256  86.5618 273.6097 15.76135827 78809
CORVUS BC2              
1 42846U 17042X   18327.16798132  .00000025  00000-0  78259-5 0  9999
2 42846  97.5831 224.1641 0010508  34.3913 325.7985 14.91887217 74071
CORVUS BC1              
1 42847U 17042Y   18327.20217028  .00000359  00000-0  40731-4 0  9998
2 42847  97.5831 224.2702 0010112  33.9338 326.2527 14.91986865 74075
SILU-1 (SILKROAD 1)     
1 42903U 17021F   18327.22994521  .00052736  00000-0  25155-3 0  9998
2 42903  42.7741  78.7335 0015655 346.9723  91.3463 15.81816672 75029
MIRATA                  
1 43015U 17073C   18327.08458603  .00000960  00000-0  79979-4 0  9996
2 43015  97.7116 251.5051 0258196 113.9559 248.8921 14.78492969 54618
MAKERSAT 0              
1 43016U 17073D   18326.73547528  .00000615  00000-0  52899-4 0  9992
2 43016  97.7146 251.3372 0259954 115.2220 247.6183 14.78391576 54562
